[{"OBJECT_NAME":"HAWK-2C","OBJECT_ID":"2021-006CT","EPOCH":"2026-03-09T16:13:22.454976","MEAN_MOTION":15.33286436,"ECCENTRICITY":0.0006943,"INCLINATION":97.2417,"RA_OF_ASC_NODE":114.9961,"ARG_OF_PERICENTER":184.0877,"MEAN_ANOMALY":176.031,"EPHEMERIS_TYPE":0,"CLASSIFICATION_TYPE":"U","NORAD_CAT_ID":47502,"ELEMENT_SET_NO":999,"REV_AT_EPOCH":28424,"BSTAR":0.00025492914,"MEAN_MOTION_DOT":8.129e-5,"MEAN_MOTION_DDOT":0},{"OBJECT_NAME":"STARLINK-35757","OBJECT_ID":"2025-247F","EPOCH":"2026-03-09T14:37:32.414880","MEAN_MOTION":15.30186691,"ECCENTRICITY":0.0001066,"INCLINATION":53.159,"RA_OF_ASC_NODE":191.6556,"ARG_OF_PERICENTER":66.3916,"MEAN_ANOMALY":293.7196,"EPHEMERIS_TYPE":0,"CLASSIFICATION_TYPE":"U","NORAD_CAT_ID":66270,"ELEMENT_SET_NO":999,"REV_AT_EPOCH":2107,"BSTAR":0.00059282,"MEAN_MOTION_DOT":0.00017232,"MEAN_MOTION_DDOT":0}]
